{
  "norad_id": 66758,
  "name": "PIAST-M",
  "history": [
    {
      "epoch": "2026-03-28T22:38:09.608064",
      "apogee_km": 508.30065549794926,
      "perigee_km": 506.8236730272156,
      "latitude_deg": -51.57793757897347,
      "longitude_deg": -133.65599103993736,
      "semi_major_axis_km": 6885.699164262583,
      "eccentricity": 0.00010725,
      "inclination_deg": 97.4233,
      "raan_deg": 162.9405,
      "arg_perigee_deg": 141.5011,
      "mean_anomaly_deg": 218.63,
      "mean_motion_rev_day": 15.19429994
    },
    {
      "epoch": "2026-03-29T04:57:29.437344",
      "apogee_km": 508.2927756916297,
      "perigee_km": 506.7916976180386,
      "latitude_deg": 83.98855370694729,
      "longitude_deg": -108.36729183979332,
      "semi_major_axis_km": 6885.679236654834,
      "eccentricity": 0.000109,
      "inclination_deg": 97.4233,
      "raan_deg": 163.1995,
      "arg_perigee_deg": 140.7776,
      "mean_anomaly_deg": 219.3538,
      "mean_motion_rev_day": 15.1943659
    }
  ]
}